{
  "type": "FeatureCollection",
  "features": [
    {
      "type": "Feature",
      "properties": {
        "norad_id": 29770,
        "name": "FENGYUN 1C DEB",
        "group": "fengyun-1c-debris",
        "lat": 4.9742906519637815,
        "lon": -102.96350094009095,
        "alt_km": 801.2944494162994,
        "timestamp": "2025-12-26T16:33:55.843283+00:00",
        "meta_object_name": "FENGYUN 1C DEB",
        "meta_object_id": "1999-025BL",
        "meta_epoch": "2025-12-26T04:09:51.945696",
        "meta_mean_motion": 14.20196486,
        "meta_eccentricity": 0.00639968,
        "meta_inclination": 98.8454,
        "meta_ra_of_asc_node": 75.7434,
        "meta_arg_of_pericenter": 232.8744,
        "meta_mean_anomaly": 182.2688,
        "meta_ephemeris_type": 0,
        "meta_classification_type": "U",
        "meta_norad_cat_id": 29770,
        "meta_element_set_no": 999,
        "meta_rev_at_epoch": 97277,
        "meta_bstar": 0.0014851234,
        "meta_mean_motion_dot": 3.192e-05,
        "meta_mean_motion_ddot": 0,
        "tle_line1": "1 29770U 99025BL  25360.17351789  .00003192  00000+0  14851-2 0  9992",
        "tle_line2": "2 29770  98.8454  75.7434 0063996 232.8744 182.2688 14.20196486972776"
      },
      "geometry": {
        "type": "Point",
        "coordinates": [
          -102.96350094009095,
          4.9742906519637815
        ]
      }
    },
    {
      "type": "Feature",
      "properties": {
        "norad_id": 29772,
        "name": "FENGYUN 1C DEB",
        "group": "fengyun-1c-debris",
        "lat": -32.47657302488436,
        "lon": -145.80768399165393,
        "alt_km": 863.2359057076656,
        "timestamp": "2025-12-26T16:33:55.843292+00:00",
        "meta_object_name": "FENGYUN 1C DEB",
        "meta_object_id": "1999-025BN",
        "meta_epoch": "2025-12-24T13:39:37.897632",
        "meta_mean_motion": 14.03249705,
        "meta_eccentricity": 0.01369059,
        "meta_inclination": 98.3837,
        "meta_ra_of_asc_node": 206.8509,
        "meta_arg_of_pericenter": 257.2434,
        "meta_mean_anomaly": 159.5842,
        "meta_ephemeris_type": 0,
        "meta_classification_type": "U",
        "meta_norad_cat_id": 29772,
        "meta_element_set_no": 999,
        "meta_rev_at_epoch": 96421,
        "meta_bstar": 0.00095382365,
        "meta_mean_motion_dot": 1.576e-05,
        "meta_mean_motion_ddot": 0,
        "tle_line1": "1 29772U 99025BN  25358.56918863  .00001576  00000+0  95382-3 0  9999",
        "tle_line2": "2 29772  98.3837 206.8509 0136905 257.2434 159.5842 14.03249705964219"
      },
      "geometry": {
        "type": "Point",
        "coordinates": [
          -145.80768399165393,
          -32.47657302488436
        ]
      }
    },
    {
      "type": "Feature",
      "properties": {
        "norad_id": 29773,
        "name": "FENGYUN 1C DEB",
        "group": "fengyun-1c-debris",
        "lat": 25.224852369205,
        "lon": -21.03632440134332,
        "alt_km": 801.9799840555988,
        "timestamp": "2025-12-26T16:33:55.843302+00:00",
        "meta_object_name": "FENGYUN 1C DEB",
        "meta_object_id": "1999-025BP",
        "meta_epoch": "2025-12-25T16:22:28.427808",
        "meta_mean_motion": 14.27594494,
        "meta_eccentricity": 0.0046539,
        "meta_inclination": 98.9879,
        "meta_ra_of_asc_node": 153.6516,
        "meta_arg_of_pericenter": 252.724,
        "meta_mean_anomaly": 124.8259,
        "meta_ephemeris_type": 0,
        "meta_classification_type": "U",
        "meta_norad_cat_id": 29773,
        "meta_element_set_no": 999,
        "meta_rev_at_epoch": 98382,
        "meta_bstar": 0.00041046811,
        "meta_mean_motion_dot": 9.75e-06,
        "meta_mean_motion_ddot": 0,
        "tle_line1": "1 29773U 99025BP  25359.68227347  .00000975  00000+0  41047-3 0  9995",
        "tle_line2": "2 29773  98.9879 153.6516 0046539 252.7240 124.8259 14.27594494983826"
      },
      "geometry": {
        "type": "Point",
        "coordinates": [
          -21.03632440134332,
          25.224852369205
        ]
      }
    },
    {
      "type": "Feature",
      "properties": {
        "norad_id": 29774,
        "name": "FENGYUN 1C DEB",
        "group": "fengyun-1c-debris",
        "lat": -57.77685113811994,
        "lon": 106.74335939481774,
        "alt_km": 856.5514373199385,
        "timestamp": "2025-12-26T16:33:55.843312+00:00",
        "meta_object_name": "FENGYUN 1C DEB",
        "meta_object_id": "1999-025BQ",
        "meta_epoch": "2025-12-26T02:15:00.157248",
        "meta_mean_motion": 14.22743202,
        "meta_eccentricity": 0.00513423,
        "meta_inclination": 99.0782,
        "meta_ra_of_asc_node": 300.8236,
        "meta_arg_of_pericenter": 85.7231,
        "meta_mean_anomaly": 339.5319,
        "meta_ephemeris_type": 0,
        "meta_classification_type": "U",
        "meta_norad_cat_id": 29774,
        "meta_element_set_no": 999,
        "meta_rev_at_epoch": 98265,
        "meta_bstar": 0.00018846453,
        "meta_mean_motion_dot": 3.81e-06,
        "meta_mean_motion_ddot": 0,
        "tle_line1": "1 29774U 99025BQ  25360.09375182  .00000381  00000+0  18846-3 0  9996",
        "tle_line2": "2 29774  99.0782 300.8236 0051342  85.7231 339.5319 14.22743202982659"
      },
      "geometry": {
        "type": "Point",
        "coordinates": [
          106.74335939481774,
          -57.77685113811994
        ]
      }
    },
    {
      "type": "Feature",
      "properties": {
        "norad_id": 29776,
        "name": "FENGYUN 1C DEB",
        "group": "fengyun-1c-debris",
        "lat": 80.0361341654492,
        "lon": -91.47271246581816,
        "alt_km": 871.4490215833093,
        "timestamp": "2025-12-26T16:33:55.843321+00:00",
        "meta_object_name": "FENGYUN 1C DEB",
        "meta_object_id": "1999-025BS",
        "meta_epoch": "2025-12-26T01:01:20.202816",
        "meta_mean_motion": 14.07782196,
        "meta_eccentricity": 0.00230736,
        "meta_inclination": 98.7699,
        "meta_ra_of_asc_node": 26.4123,
        "meta_arg_of_pericenter": 231.9993,
        "meta_mean_anomaly": 182.5173,
        "meta_ephemeris_type": 0,
        "meta_classification_type": "U",
        "meta_norad_cat_id": 29776,
        "meta_element_set_no": 999,
        "meta_rev_at_epoch": 97267,
        "meta_bstar": 0.00010482479,
        "meta_mean_motion_dot": 1.35e-06,
        "meta_mean_motion_ddot": 0,
        "tle_line1": "1 29776U 99025BS  25360.04259494  .00000135  00000+0  10482-3 0  9995",
        "tle_line2": "2 29776  98.7699  26.4123 0023073 231.9993 182.5173 14.07782196972673"
      },
      "geometry": {
        "type": "Point",
        "coordinates": [
          -91.47271246581816,
          80.0361341654492
        ]
      }
    },
    {
      "type": "Feature",
      "properties": {
        "norad_id": 29777,
        "name": "FENGYUN 1C DEB",
        "group": "fengyun-1c-debris",
        "lat": 71.69288182682969,
        "lon": 27.948204598921325,
        "alt_km": 922.9457139847555,
        "timestamp": "2025-12-26T16:33:55.843331+00:00",
        "meta_object_name": "FENGYUN 1C DEB",
        "meta_object_id": "1999-025BT",
        "meta_epoch": "2025-12-26T02:42:42.984864",
        "meta_mean_motion": 13.92110087,
        "meta_eccentricity": 0.00932622,
        "meta_inclination": 99.2816,
        "meta_ra_of_asc_node": 56.9912,
        "meta_arg_of_pericenter": 173.5792,
        "meta_mean_anomaly": 250.3678,
        "meta_ephemeris_type": 0,
        "meta_classification_type": "U",
        "meta_norad_cat_id": 29777,
        "meta_element_set_no": 999,
        "meta_rev_at_epoch": 96227,
        "meta_bstar": 0.00021247192,
        "meta_mean_motion_dot": 2.37e-06,
        "meta_mean_motion_ddot": 0,
        "tle_line1": "1 29777U 99025BT  25360.11299751  .00000237  00000+0  21247-3 0  9998",
        "tle_line2": "2 29777  99.2816  56.9912 0093262 173.5792 250.3678 13.92110087962276"
      },
      "geometry": {
        "type": "Point",
        "coordinates": [
          27.948204598921325,
          71.69288182682969
        ]
      }
    },
    {
      "type": "Feature",
      "properties": {
        "norad_id": 29779,
        "name": "FENGYUN 1C DEB",
        "group": "fengyun-1c-debris",
        "lat": 23.90548380885666,
        "lon": 7.627133942856468,
        "alt_km": 855.0434281197786,
        "timestamp": "2025-12-26T16:33:55.843340+00:00",
        "meta_object_name": "FENGYUN 1C DEB",
        "meta_object_id": "1999-025BV",
        "meta_epoch": "2025-12-26T06:15:26.144928",
        "meta_mean_motion": 14.1345448,
        "meta_eccentricity": 0.00640339,
        "meta_inclination": 98.6769,
        "meta_ra_of_asc_node": 11.0917,
        "meta_arg_of_pericenter": 125.9616,
        "meta_mean_anomaly": 234.752,
        "meta_ephemeris_type": 0,
        "meta_classification_type": "U",
        "meta_norad_cat_id": 29779,
        "meta_element_set_no": 999,
        "meta_rev_at_epoch": 97603,
        "meta_bstar": 0.0002260638,
        "meta_mean_motion_dot": 3.91e-06,
        "meta_mean_motion_ddot": 0,
        "tle_line1": "1 29779U 99025BV  25360.26071927  .00000391  00000+0  22606-3 0  9990",
        "tle_line2": "2 29779  98.6769  11.0917 0064033 125.9616 234.7520 14.13454480976038"
      },
      "geometry": {
        "type": "Point",
        "coordinates": [
          7.627133942856468,
          23.90548380885666
        ]
      }
    }
  ]
}